Spinny
1 75001F 21750A   21177.00000000  .00000000  00000-0  00000-0 0   51
2 75001  98.0875 274.0660 0000000   0.0000 359.9920 14.57890000 1100
